NOAA 2 [-]              
1 06235U 72082A   17346.53337420 -.00000028  00000-0  10316-3 0  9998
2 06235 101.7102 308.8790 0004209   5.3782 130.8665 12.53099854 65786
